{
  "type": "FeatureCollection",
  "features": [
    {
      "type": "Feature",
      "properties": {
        "norad_id": 33805,
        "name": "COSMOS 2251 DEB",
        "group": "cosmos-2251-debris",
        "lat": 40.482485388191925,
        "lon": 112.01832673799449,
        "alt_km": 654.0499183095808,
        "timestamp": "2025-12-15T10:55:21.537234+00:00",
        "meta_object_name": "COSMOS 2251 DEB",
        "meta_object_id": "1993-036AW",
        "meta_epoch": "2025-12-14T21:07:17.087232",
        "meta_mean_motion": 14.57860128,
        "meta_eccentricity": 0.00601321,
        "meta_inclination": 74.0309,
        "meta_ra_of_asc_node": 307.2591,
        "meta_arg_of_pericenter": 135.6087,
        "meta_mean_anomaly": 224.9921,
        "meta_ephemeris_type": 0,
        "meta_classification_type": "U",
        "meta_norad_cat_id": 33805,
        "meta_element_set_no": 999,
        "meta_rev_at_epoch": 89258,
        "meta_bstar": 0.0002548061,
        "meta_mean_motion_dot": 1.166e-05,
        "meta_mean_motion_ddot": 0,
        "tle_line1": "1 33805U 93036AW  25348.88005888  .00001166  00000+0  25481-3 0  9993",
        "tle_line2": "2 33805  74.0309 307.2591 0060132 135.6087 224.9921 14.57860128892586"
      },
      "geometry": {
        "type": "Point",
        "coordinates": [
          112.01832673799449,
          40.482485388191925
        ]
      }
    },
    {
      "type": "Feature",
      "properties": {
        "norad_id": 33811,
        "name": "COSMOS 2251 DEB",
        "group": "cosmos-2251-debris",
        "lat": 64.84292553366275,
        "lon": 78.89066823280412,
        "alt_km": 544.4982593119839,
        "timestamp": "2025-12-15T10:55:21.537245+00:00",
        "meta_object_name": "COSMOS 2251 DEB",
        "meta_object_id": "1993-036BC",
        "meta_epoch": "2025-12-14T21:55:31.075968",
        "meta_mean_motion": 15.05344722,
        "meta_eccentricity": 0.00308288,
        "meta_inclination": 73.8377,
        "meta_ra_of_asc_node": 298.1479,
        "meta_arg_of_pericenter": 18.4913,
        "meta_mean_anomaly": 37.0579,
        "meta_ephemeris_type": 0,
        "meta_classification_type": "U",
        "meta_norad_cat_id": 33811,
        "meta_element_set_no": 999,
        "meta_rev_at_epoch": 90051,
        "meta_bstar": 0.00069092726,
        "meta_mean_motion_dot": 9.972e-05,
        "meta_mean_motion_ddot": 0,
        "tle_line1": "1 33811U 93036BC  25348.91355412  .00009972  00000+0  69093-3 0  9995",
        "tle_line2": "2 33811  73.8377 298.1479 0030828  18.4913  37.0579 15.05344722900519"
      },
      "geometry": {
        "type": "Point",
        "coordinates": [
          78.89066823280412,
          64.84292553366275
        ]
      }
    },
    {
      "type": "Feature",
      "properties": {
        "norad_id": 33815,
        "name": "COSMOS 2251 DEB",
        "group": "cosmos-2251-debris",
        "lat": -51.24016213399294,
        "lon": 149.86516701869726,
        "alt_km": 515.5752867499914,
        "timestamp": "2025-12-15T10:55:21.537256+00:00",
        "meta_object_name": "COSMOS 2251 DEB",
        "meta_object_id": "1993-036BG",
        "meta_epoch": "2025-12-14T23:10:32.909088",
        "meta_mean_motion": 15.18699884,
        "meta_eccentricity": 0.0001527,
        "meta_inclination": 73.9514,
        "meta_ra_of_asc_node": 171.9048,
        "meta_arg_of_pericenter": 248.3603,
        "meta_mean_anomaly": 262.5563,
        "meta_ephemeris_type": 0,
        "meta_classification_type": "U",
        "meta_norad_cat_id": 33815,
        "meta_element_set_no": 999,
        "meta_rev_at_epoch": 88404,
        "meta_bstar": 0.003941796,
        "meta_mean_motion_dot": 0.00082715,
        "meta_mean_motion_ddot": 0,
        "tle_line1": "1 33815U 93036BG  25348.96565867  .00082715  00000+0  39418-2 0  9994",
        "tle_line2": "2 33815  73.9514 171.9048 0001527 248.3603 262.5563 15.18699884884044"
      },
      "geometry": {
        "type": "Point",
        "coordinates": [
          149.86516701869726,
          -51.24016213399294
        ]
      }
    },
    {
      "type": "Feature",
      "properties": {
        "norad_id": 33816,
        "name": "COSMOS 2251 DEB",
        "group": "cosmos-2251-debris",
        "lat": -73.55244101516567,
        "lon": 22.66220033905039,
        "alt_km": 1146.5050080729852,
        "timestamp": "2025-12-15T10:55:21.537267+00:00",
        "meta_object_name": "COSMOS 2251 DEB",
        "meta_object_id": "1993-036BH",
        "meta_epoch": "2025-12-14T16:14:49.109856",
        "meta_mean_motion": 13.81785918,
        "meta_eccentricity": 0.0264599,
        "meta_inclination": 73.895,
        "meta_ra_of_asc_node": 102.1124,
        "meta_arg_of_pericenter": 114.6616,
        "meta_mean_anomaly": 248.2309,
        "meta_ephemeris_type": 0,
        "meta_classification_type": "U",
        "meta_norad_cat_id": 33816,
        "meta_element_set_no": 999,
        "meta_rev_at_epoch": 84700,
        "meta_bstar": 0.00050587303,
        "meta_mean_motion_dot": 6.85e-06,
        "meta_mean_motion_ddot": 0,
        "tle_line1": "1 33816U 93036BH  25348.67695729  .00000685  00000+0  50587-3 0  9991",
        "tle_line2": "2 33816  73.8950 102.1124 0264599 114.6616 248.2309 13.81785918847004"
      },
      "geometry": {
        "type": "Point",
        "coordinates": [
          22.66220033905039,
          -73.55244101516567
        ]
      }
    },
    {
      "type": "Feature",
      "properties": {
        "norad_id": 33818,
        "name": "COSMOS 2251 DEB",
        "group": "cosmos-2251-debris",
        "lat": 41.41440903738882,
        "lon": -33.958164251656285,
        "alt_km": 506.34386021911723,
        "timestamp": "2025-12-15T10:55:21.537278+00:00",
        "meta_object_name": "COSMOS 2251 DEB",
        "meta_object_id": "1993-036BK",
        "meta_epoch": "2025-12-14T22:19:09.047712",
        "meta_mean_motion": 15.12691193,
        "meta_eccentricity": 0.00265254,
        "meta_inclination": 74.0761,
        "meta_ra_of_asc_node": 161.7133,
        "meta_arg_of_pericenter": 149.6045,
        "meta_mean_anomaly": 8.3449,
        "meta_ephemeris_type": 0,
        "meta_classification_type": "U",
        "meta_norad_cat_id": 33818,
        "meta_element_set_no": 999,
        "meta_rev_at_epoch": 89895,
        "meta_bstar": 0.0016435612,
        "meta_mean_motion_dot": 0.00029095,
        "meta_mean_motion_ddot": 0,
        "tle_line1": "1 33818U 93036BK  25348.92996583  .00029095  00000+0  16436-2 0  9993",
        "tle_line2": "2 33818  74.0761 161.7133 0026525 149.6045   8.3449 15.12691193898956"
      },
      "geometry": {
        "type": "Point",
        "coordinates": [
          -33.958164251656285,
          41.41440903738882
        ]
      }
    },
    {
      "type": "Feature",
      "properties": {
        "norad_id": 33819,
        "name": "COSMOS 2251 DEB",
        "group": "cosmos-2251-debris",
        "lat": -15.73265064197632,
        "lon": 29.51588836109012,
        "alt_km": 830.1052680020275,
        "timestamp": "2025-12-15T10:55:21.537288+00:00",
        "meta_object_name": "COSMOS 2251 DEB",
        "meta_object_id": "1993-036BL",
        "meta_epoch": "2025-12-14T22:46:50.638944",
        "meta_mean_motion": 14.32232033,
        "meta_eccentricity": 0.00891434,
        "meta_inclination": 74.1786,
        "meta_ra_of_asc_node": 205.8491,
        "meta_arg_of_pericenter": 66.4953,
        "meta_mean_anomaly": 41.5337,
        "meta_ephemeris_type": 0,
        "meta_classification_type": "U",
        "meta_norad_cat_id": 33819,
        "meta_element_set_no": 999,
        "meta_rev_at_epoch": 87527,
        "meta_bstar": 0.00058566329,
        "meta_mean_motion_dot": 1.626e-05,
        "meta_mean_motion_ddot": 0,
        "tle_line1": "1 33819U 93036BL  25348.94919721  .00001626  00000+0  58566-3 0  9996",
        "tle_line2": "2 33819  74.1786 205.8491 0089143  66.4953  41.5337 14.32232033875271"
      },
      "geometry": {
        "type": "Point",
        "coordinates": [
          29.51588836109012,
          -15.73265064197632
        ]
      }
    },
    {
      "type": "Feature",
      "properties": {
        "norad_id": 33821,
        "name": "COSMOS 2251 DEB",
        "group": "cosmos-2251-debris",
        "lat": 58.49821789687164,
        "lon": 164.95726089539792,
        "alt_km": 493.58936671131414,
        "timestamp": "2025-12-15T10:55:21.537298+00:00",
        "meta_object_name": "COSMOS 2251 DEB",
        "meta_object_id": "1993-036BN",
        "meta_epoch": "2025-12-14T20:28:55.117344",
        "meta_mean_motion": 15.25458881,
        "meta_eccentricity": 0.00513762,
        "meta_inclination": 74.0288,
        "meta_ra_of_asc_node": 138.3678,
        "meta_arg_of_pericenter": 171.1464,
        "meta_mean_anomaly": 189.0656,
        "meta_ephemeris_type": 0,
        "meta_classification_type": "U",
        "meta_norad_cat_id": 33821,
        "meta_element_set_no": 999,
        "meta_rev_at_epoch": 75033,
        "meta_bstar": 0.00087444969,
        "meta_mean_motion_dot": 0.00023008,
        "meta_mean_motion_ddot": 0,
        "tle_line1": "1 33821U 93036BN  25348.85341571  .00023008  00000+0  87445-3 0  9997",
        "tle_line2": "2 33821  74.0288 138.3678 0051376 171.1464 189.0656 15.25458881750330"
      },
      "geometry": {
        "type": "Point",
        "coordinates": [
          164.95726089539792,
          58.49821789687164
        ]
      }
    }
  ]
}